QZS-1R                  
1 49336U 21096A   24186.77600178 -.00000323  00000+0  00000+0 0  9997
2 49336  35.9794  90.2612 0757206 271.8566 333.5616  1.00252844  9862
